STARLINK-3918           
1 52486U 22049AM  24020.23647959  .00002742  00000+0  19024-3 0  9998
2 52486  53.2181 318.2209 0001619 107.2286 252.8883 15.08850279 94582
STARLINK-3902           
1 52487U 22049AN  24020.80414497  .00004244  00000+0  28468-3 0  9992
2 52487  53.2185 305.7790 0001480 102.9022 257.2136 15.08825197 94962
STARLINK-3892           
1 52488U 22049AP  24020.23279921  .00000198  00000+0  30550-4 0  9991
2 52488  53.2183 318.2377 0001583 103.5844 256.5325 15.08849549 94749
STARLINK-3923           
1 52489U 22049AQ  24020.83632936 -.00000277  00000+0  70026-6 0  9990
2 52489  53.2193 315.5247 0001397  94.0930 266.0222 15.08839090 94832
STARLINK-3914           
1 52490U 22049AR  24020.11596842  .00004200  00000+0  28166-3 0  9992
2 52490  53.2181 308.7617 0001465  89.3655 270.7505 15.08859651 94700
STARLINK-3908           
1 52491U 22049AS  24020.05708856  .00001008  00000+0  81415-4 0  9996
2 52491  53.2193 309.0228 0001703  75.1258 284.9923 15.08838665 94694
STARLINK-3916           
1 52492U 22049AT  24020.77102232  .00010635  00000+0  68636-3 0  9997
2 52492  53.2189 305.8272 0001288 124.3768 235.7346 15.08782840 94960
STARLINK-3883           
1 52493U 22049AU  24020.78206091 -.00003232  00000+0 -18516-3 0  9996
2 52493  53.2178 305.7727 0001745  78.8513 281.2675 15.08824840 94960
STARLINK-3857           
1 52494U 22049AV  24020.23004182  .00001025  00000+0  82467-4 0  9997
2 52494  53.2186 308.2506 0001682 107.6451 252.4725 15.08842205 94720
STARLINK-3905           
1 52495U 22049AW  24020.77468631 -.00002446  00000+0 -13565-3 0  9992
2 52495  53.2178 305.8063 0001561  93.1715 266.9456 15.08836847 94963
STARLINK-3871           
1 52496U 22049AX  24020.79538677  .00009199  00000+0  59529-3 0  9993
2 52496  53.2165 300.7128 0001387 100.9148 259.2000 15.08840874 94874
STARLINK-3884           
1 52497U 22049AY  24020.17116264  .00001927  00000+0  13914-3 0  9999
2 52497  53.2176 308.5146 0001511  79.1571 280.9591 15.08846141 94711
STARLINK-3925           
1 52498U 22049AZ  24020.14632446  .00001591  00000+0  11804-3 0  9995
2 52498  53.2165 298.6204 0001412 111.3545 248.7598 15.08843897 94842
STARLINK-3894           
1 52499U 22049BA  24020.16748103  .00001808  00000+0  13164-3 0  9998
2 52499  53.2185 308.5298 0001411  89.3596 270.7557 15.08845191 94713
STARLINK-3866           
1 52500U 22049BB  24020.14264178  .00001936  00000+0  13971-3 0  9992
2 52500  53.2174 298.6462 0001444  83.0207 277.0949 15.08844623 95009
STARLINK-3907           
1 52501U 22049BC  24020.80777966 -.00002100  00000+0 -11389-3 0  9997
2 52501  53.2172 305.4539 0001374  96.7438 263.3710 15.08840509 94977
STARLINK-3912           
1 52502U 22049BD  24020.00648858  .00001292  00000+0  99237-4 0  9995
2 52502  53.2165 299.2873 0001609 108.0359 252.0808 15.08842194 94820
STARLINK-3861           
1 52503U 22049BE  24020.14360895  .00001407  00000+0  10650-3 0  9992
2 52503  53.2181 298.6917 0001603  94.9070 265.2105 15.08840753 94845
STARLINK-3951           
1 52533U 22051A   24020.34046875 -.00004837  00000+0 -28620-3 0  9997
2 52533  53.2156  27.9009 0001236 131.0506 229.0594 15.08817364 93788
STARLINK-3952           
1 52534U 22051B   24020.33308693  .00000599  00000+0  55723-4 0  9990
2 52534  53.2176  27.7915 0001578  97.7008 262.4164 15.08839894 94528
STARLINK-3958           
1 52535U 22051C   24020.32940822  .00001183  00000+0  92395-4 0  9992
2 52535  53.2168  27.8040 0001567  91.6264 268.4907 15.08838970 93787
STARLINK-3964           
1 52536U 22051D   24020.32572868 -.00001674  00000+0 -87053-4 0  9996
2 52536  53.2181  27.8239 0001778  91.3693 268.7503 15.08846020 93780
STARLINK-3897           
1 52537U 22051E   24020.30360841  .00002354  00000+0  16593-3 0  9995
2 52537  53.2181  27.7253 0001555 110.6827 249.4332 15.08846071 93785
STARLINK-3933           
1 52538U 22051F   24020.31468574 -.00001322  00000+0 -64991-4 0  9991
2 52538  53.2167  27.8700 0001590  95.6365 264.4809 15.08840498 93789
STARLINK-3757           
1 52539U 22051G   24020.25212821  .00000870  00000+0  72761-4 0  9996
2 52539  53.2172  28.1533 0001606  88.7766 271.3410 15.08837330 93775
STARLINK-3940           
1 52540U 22051H   24020.29354726 -.00003491  00000+0 -20139-3 0  9998
2 52540  53.2168  27.8570 0001838  83.8082 276.3120 15.08833411 93783
STARLINK-3845           
1 52541U 22051J   24020.33812813  .00010245  00000+0  66024-3 0  9996
2 52541  53.2167  32.7650 0001858  85.5208 274.5996 15.08872612 93718
STARLINK-3937           
1 52542U 22051K   24020.29996185  .00001962  00000+0  14132-3 0  9996
2 52542  53.2164  27.9340 0001519 107.6363 252.4796 15.08843335 93780
STARLINK-3926           
1 52543U 22051L   24020.31100251  .00002732  00000+0  18960-3 0  9990
2 52543  53.2183  27.8878 0001849 108.2799 251.8395 15.08856416 93785
STARLINK-3944           
1 52544U 22051M   24020.33078886  .00000438  00000+0  45635-4 0  9992
2 52544  53.2179  32.8152 0001430  99.0165 261.0989 15.08839366 93789
