OBJECT_NAME,OBJECT_ID,EPOCH,MEAN_MOTION,ECCENTRICITY,INCLINATION,RA_OF_ASC_NODE,ARG_OF_PERICENTER,MEAN_ANOMALY,EPHEMERIS_TYPE,CLASSIFICATION_TYPE,NORAD_CAT_ID,ELEMENT_SET_NO,REV_AT_EPOCH,BSTAR,MEAN_MOTION_DOT,MEAN_MOTION_DDOT
STARLINK-3918,2022-049AM,2024-01-20T05:40:31.836576,15.08850279,0.0001619,53.2181,318.2209,107.2286,252.8883,0,U,52486,999,9458,0.00019024,2.742e-05,0.0
STARLINK-3902,2022-049AN,2024-01-20T19:17:58.125408,15.08825197,0.000148,53.2185,305.779,102.9022,257.2136,0,U,52487,999,9496,0.00028468,4.244e-05,0.0
STARLINK-3892,2022-049AP,2024-01-20T05:35:13.851744,15.08849549,0.0001583,53.2183,318.2377,103.5844,256.5325,0,U,52488,999,9474,3.055e-05,1.98e-06,0.0
STARLINK-3923,2022-049AQ,2024-01-20T20:04:18.856704,15.0883909,0.0001397,53.2193,315.5247,94.093,266.0222,0,U,52489,999,9483,7.0026e-07,-2.77e-06,0.0
STARLINK-3914,2022-049AR,2024-01-20T02:46:59.671488,15.08859651,0.0001465,53.2181,308.7617,89.3655,270.7505,0,U,52490,999,9470,0.00028166,4.2e-05,0.0
STARLINK-3908,2022-049AS,2024-01-20T01:22:12.451584,15.08838665,0.0001703,53.2193,309.0228,75.1258,284.9923,0,U,52491,999,9469,8.1415e-05,1.008e-05,0.0
STARLINK-3916,2022-049AT,2024-01-20T18:30:16.328448,15.0878284,0.0001288,53.2189,305.8272,124.3768,235.7346,0,U,52492,999,9496,0.00068636,0.00010635,0.0
STARLINK-3883,2022-049AU,2024-01-20T18:46:10.062624,15.0882484,0.0001745,53.2178,305.7727,78.8513,281.2675,0,U,52493,999,9496,-0.00018516,-3.232e-05,0.0
STARLINK-3857,2022-049AV,2024-01-20T05:31:15.613248,15.08842205,0.0001682,53.2186,308.2506,107.6451,252.4725,0,U,52494,999,9472,8.2467e-05,1.025e-05,0.0
STARLINK-3905,2022-049AW,2024-01-20T18:35:32.897184,15.08836847,0.0001561,53.2178,305.8063,93.1715,266.9456,0,U,52495,999,9496,-0.00013565,-2.446e-05,0.0
STARLINK-3871,2022-049AX,2024-01-20T19:05:21.416928,15.08840874,0.0001387,53.2165,300.7128,100.9148,259.2,0,U,52496,999,9487,0.00059529,9.199e-05,0.0
STARLINK-3884,2022-049AY,2024-01-20T04:06:28.452096,15.08846141,0.0001511,53.2176,308.5146,79.1571,280.9591,0,U,52497,999,9471,0.00013914,1.927e-05,0.0
STARLINK-3925,2022-049AZ,2024-01-20T03:30:42.433344,15.08843897,0.0001412,53.2165,298.6204,111.3545,248.7598,0,U,52498,999,9484,0.00011804,1.591e-05,0.0
STARLINK-3894,2022-049BA,2024-01-20T04:01:10.360992,15.08845191,0.0001411,53.2185,308.5298,89.3596,270.7557,0,U,52499,999,9471,0.00013164,1.808e-05,0.0
STARLINK-3866,2022-049BB,2024-01-20T03:25:24.249792,15.08844623,0.0001444,53.2174,298.6462,83.0207,277.0949,0,U,52500,999,9500,0.00013971,1.936e-05,0.0
STARLINK-3907,2022-049BC,2024-01-20T19:23:12.162624,15.08840509,0.0001374,53.2172,305.4539,96.7438,263.371,0,U,52501,999,9497,-0.00011389,-2.1e-05,0.0
STARLINK-3912,2022-049BD,2024-01-20T00:09:20.613312,15.08842194,0.0001609,53.2165,299.2873,108.0359,252.0808,0,U,52502,999,9482,9.9237e-05,1.292e-05,0.0
STARLINK-3861,2022-049BE,2024-01-20T03:26:47.813280,15.08840753,0.0001603,53.2181,298.6917,94.907,265.2105,0,U,52503,999,9484,0.0001065,1.407e-05,0.0
STARLINK-3951,2022-051A,2024-01-20T08:10:16.500000,15.08817364,0.0001236,53.2156,27.9009,131.0506,229.0594,0,U,52533,999,9378,-0.0002862,-4.837e-05,0.0
STARLINK-3952,2022-051B,2024-01-20T07:59:38.710752,15.08839894,0.0001578,53.2176,27.7915,97.7008,262.4164,0,U,52534,999,9452,5.5723e-05,5.99e-06,0.0
STARLINK-3958,2022-051C,2024-01-20T07:54:20.870208,15.0883897,0.0001567,53.2168,27.804,91.6264,268.4907,0,U,52535,999,9378,9.2395e-05,1.183e-05,0.0
STARLINK-3964,2022-051D,2024-01-20T07:49:02.957952,15.0884602,0.0001778,53.2181,27.8239,91.3693,268.7503,0,U,52536,999,9378,-8.7053e-05,-1.674e-05,0.0
STARLINK-3897,2022-051E,2024-01-20T07:17:11.766624,15.08846071,0.0001555,53.2181,27.7253,110.6827,249.4332,0,U,52537,999,9378,0.00016593,2.354e-05,0.0
STARLINK-3933,2022-051F,2024-01-20T07:33:08.847936,15.08840498,0.000159,53.2167,27.87,95.6365,264.4809,0,U,52538,999,9378,-6.4991e-05,-1.322e-05,0.0
STARLINK-3757,2022-051G,2024-01-20T06:03:03.877344,15.0883733,0.0001606,53.2172,28.1533,88.7766,271.341,0,U,52539,999,9377,7.2761e-05,8.7e-06,0.0
STARLINK-3940,2022-051H,2024-01-20T07:02:42.483264,15.08833411,0.0001838,53.2168,27.857,83.8082,276.312,0,U,52540,999,9378,-0.00020139,-3.491e-05,0.0
STARLINK-3845,2022-051J,2024-01-20T08:06:54.270432,15.08872612,0.0001858,53.2167,32.765,85.5208,274.5996,0,U,52541,999,9371,0.00066024,0.00010245,0.0
STARLINK-3937,2022-051K,2024-01-20T07:11:56.703840,15.08843335,0.0001519,53.2164,27.934,107.6363,252.4796,0,U,52542,999,9378,0.00014132,1.962e-05,0.0
STARLINK-3926,2022-051L,2024-01-20T07:27:50.616864,15.08856416,0.0001849,53.2183,27.8878,108.2799,251.8395,0,U,52543,999,9378,0.0001896,2.732e-05,0.0
STARLINK-3944,2022-051M,2024-01-20T07:56:20.157504,15.08839366,0.000143,53.2179,32.8152,99.0165,261.0989,0,U,52544,999,9378,4.5635e-05,4.38e-06,0.0
